ELYSIUM STAR 2 & LFF    
1 43760U 18099C   24272.77014840  .00134766  00000+0  30027-2 0  9995
2 43760  97.5027 341.9191 0005977 245.0707 114.9919 15.43069292319102
